NORAD_CAT_ID,OBJECT_NAME,OBJECT_TYPE,EPOCH,MEAN_MOTION,ECCENTRICITY,INCLINATION,RA_OF_ASC_NODE,ARG_OF_PERICENTER,MEAN_ANOMALY,BSTAR,MEAN_MOTION_DOT,MEAN_MOTION_DDOT,TLE_LINE0,TLE_LINE1,TLE_LINE2,SEMIMAJOR_AXIS,PERIOD,APOGEE,PERIGEE,DECAYED
53392.0,STARLINK-4535,PAYLOAD,2022-09-17 06:00:00,15.24806067,0.0001254,53.2174,63.2509,56.8193,308.0163,-0.0488829999999999,-0.01120243,0.0,0 STARLINK-4535,1 53392U 22097E   22260.25001157 -.01120243  00000-0 -48883-1 0  9992,2 53392  53.2174  63.2509 0001254  56.8193 308.0163 15.24806067  6371,6869.505,94.438,492.231,490.508,0.0
53392.0,STARLINK-4535,PAYLOAD,2022-09-17 14:00:01,15.24005017,0.0001476,53.2176,61.7171,47.0806,348.045,-0.050204,-0.01137759,0.0,0 STARLINK-4535,1 53392U 22097E   22260.58334491 -.01137759  00000-0 -50204-1 0  9998,2 53392  53.2176  61.7171 0001476  47.0806 348.0450 15.24005017  1307,6871.9119999999975,94.488,494.791,492.763,0.0
53392.0,STARLINK-4535,PAYLOAD,2022-09-17 22:00:00,15.23198999,0.000133,53.2173,60.1858,58.3411,6.1115,-0.0511519999999999,-0.01132054,0.0,0 STARLINK-4535,1 53392U 22097E   22260.91667824 -.01132054  00000-0 -51152-1 0  9990,2 53392  53.2173  60.1858 0001330  58.3411   6.1115 15.23198999  1306,6874.3359999999975,94.538,497.115,495.287,0.0
53392.0,STARLINK-4535,PAYLOAD,2022-09-18 06:00:00,15.22396558,0.0001418,53.2174,58.6533,54.4771,38.3384,-0.05246,-0.01133491,0.0,0 STARLINK-4535,1 53392U 22097E   22261.25001157 -.01133491  00000-0 -52460-1 0  9998,2 53392  53.2174  58.6533 0001418  54.4771  38.3384 15.22396558  6526,6876.751,94.588,499.591,497.641,0.0
53392.0,STARLINK-4535,PAYLOAD,2022-09-18 14:00:01,15.21534129,0.0001475,53.2178,57.1265,67.1457,53.161,-0.04981,-0.01042135,0.0,0 STARLINK-4535,1 53392U 22097E   22261.58335648 -.01042135  00000-0 -49810-1 0  9998,2 53392  53.2178  57.1265 0001475  67.1457  53.1610 15.21534129  1306,6879.35,94.641,502.229,500.2,0.0
53392.0,STARLINK-4535,PAYLOAD,2022-09-18 22:00:00,15.20789368,0.0001436,53.2173,55.5995,64.5317,82.11200000000002,-0.054848,-0.01130348,0.0,0 STARLINK-4535,1 53392U 22097E   22261.91667824 -.01130348  00000-0 -54848-1 0  9990,2 53392  53.2173  55.5995 0001436  64.5317  82.1120 15.20789368  1300,6881.595,94.688,504.449,502.472,0.0
53392.0,STARLINK-4535,PAYLOAD,2022-09-19 06:00:02,15.19987333,0.0001519,53.2173,54.0727,58.8789,113.2962,-0.0562519999999999,-0.0113217,0.0,0 STARLINK-4535,1 53392U 22097E   22262.25002315 -.01132170  00000-0 -56252-1 0  9992,2 53392  53.2173  54.0727 0001519  58.8789 113.2962 15.19987333  6673,6884.016,94.738,506.927,504.835,0.0
53392.0,STARLINK-4535,PAYLOAD,2022-09-19 14:00:01,15.19184602,0.0001689,53.2175,52.5506,51.6696,144.9439,-0.057595,-0.01132342,0.0,0 STARLINK-4535,1 53392U 22097E   22262.58334491 -.01132342  00000-0 -57595-1 0  9993,2 53392  53.2175  52.5506 0001689  51.6696 144.9439 15.19184602  1302,6886.441,94.788,509.469,507.143,0.0
53392.0,STARLINK-4535,PAYLOAD,2022-09-19 22:00:00,15.18381519,0.0001406999999999,53.2172,51.0303,72.9072,147.2434,-0.0589049999999999,-0.01131375,0.0,0 STARLINK-4535,1 53392U 22097E   22262.91667824 -.01131375  00000-0 -58905-1 0  9990,2 53392  53.2172  51.0303 0001407  72.9072 147.2434 15.18381519  1306,6888.869000000002,94.838,511.703,509.764,0.0
53392.0,STARLINK-4535,PAYLOAD,2022-09-20 06:00:00,15.17577985,0.0001506999999999,53.2173,49.50899999999999,57.1431,185.5817,-0.060249,-0.01130651,0.0,0 STARLINK-4535,1 53392U 22097E   22263.25001157 -.01130651  00000-0 -60249-1 0  9999,2 53392  53.2173  49.5090 0001507  57.1431 185.5817 15.17577985  6822,6891.3,94.888,514.2040000000002,512.127,0.0
53392.0,STARLINK-4535,PAYLOAD,2022-09-20 14:00:01,15.16775509,0.0001629,53.2174,47.9927,50.2381,214.0937,-0.061684,-0.01131095,0.0,0 STARLINK-4535,1 53392U 22097E   22263.58334491 -.01131095  00000-0 -61684-1 0  9992,2 53392  53.2174  47.9927 0001629  50.2381 214.0937 15.16775509  1307,6893.731,94.938,516.719,514.4730000000002,0.0
53392.0,STARLINK-4535,PAYLOAD,2022-09-20 22:00:01,15.15974314,0.0001371,53.2171,46.4777,63.1204,221.9167,-0.063271,-0.01133568,0.0,0 STARLINK-4535,1 53392U 22097E   22263.91668981 -.01133568  00000-0 -63271-1 0  9994,2 53392  53.2171  46.4777 0001371  63.1204 221.9167 15.15974314  1308,6896.159000000002,94.988,518.97,517.0790000000002,0.0
53392.0,STARLINK-4535,PAYLOAD,2022-09-21 08:00:01,15.14968218,0.0001515,53.2172,44.5838,47.2479,352.1756,-0.064924,-0.0113052,0.0,0 STARLINK-4535,1 53392U 22097E   22264.33334491 -.01130520  00000-0 -64924-1 0  9998,2 53392  53.2172  44.5838 0001515  47.2479 352.1756 15.14968218  6999,6899.212,95.051,522.122,520.0319999999998,0.0
53392.0,STARLINK-4535,PAYLOAD,2022-09-21 22:00:00,15.13566133,0.0001388,53.2171,41.942,53.2039,287.9105,-0.0678,-0.01134235,0.0,0 STARLINK-4535,1 53392U 22097E   22264.91667824 -.01134235  00000-0 -67800-1 0  9994,2 53392  53.2171  41.9420 0001388  53.2039 287.9105 15.13566133  1305,6903.472,95.14,526.295,524.379,0.0
53392.0,STARLINK-4535,PAYLOAD,2022-09-22 06:00:00,15.12759126,0.0001320999999999,53.2172,40.4321,56.49100000000001,301.4101,-0.068963,-0.0112822,0.0,0 STARLINK-4535,1 53392U 22097E   22265.25001157 -.01128220  00000-0 -68963-1 0  9991,2 53392  53.2172  40.4321 0001321  56.4910 301.4101 15.12759126  7130,6905.927,95.19,528.7040000000002,526.88,0.0
53392.0,STARLINK-4535,PAYLOAD,2022-09-22 14:00:01,15.11971866,0.0001455,53.2178,38.9282,53.6529,320.0586,-0.071992,-0.01150203,0.0,0 STARLINK-4535,1 53392U 22097E   22265.58334491 -.01150203  00000-0 -71992-1 0  9999,2 53392  53.2178  38.9282 0001455  53.6529 320.0586 15.11971866  1300,6908.324000000001,95.24,531.194,529.184,0.0
53392.0,STARLINK-4535,PAYLOAD,2022-09-22 22:00:00,15.11156813,0.0001448,53.2171,37.423,50.1265,338.4455,-0.072473,-0.01133216,0.0,0 STARLINK-4535,1 53392U 22097E   22265.91667824 -.01133216  00000-0 -72473-1 0  9995,2 53392  53.2171  37.4230 0001448  50.1265 338.4455 15.11156813  1306,6910.808000000001,95.291,533.674,531.672,0.0
53392.0,STARLINK-4535,PAYLOAD,2022-09-23 06:00:00,15.10352466,0.0001663,53.2172,35.91900000000001,37.7809,4.6826,-0.074114,-0.01133261,0.0,0 STARLINK-4535,1 53392U 22097E   22266.25001157 -.01133261  00000-0 -74114-1 0  9998,2 53392  53.2172  35.9190 0001663  37.7809   4.6826 15.10352466  7287,6913.261,95.342,536.276,533.977,0.0
53392.0,STARLINK-4535,PAYLOAD,2022-09-23 14:00:01,15.09417644,0.0001621,53.2173,34.4205,41.7563,13.6491,-0.043364,-0.00656826,0.0,0 STARLINK-4535,1 53392U 22097E   22266.58334491 -.00656826  00000-0 -43364-1 0  9993,2 53392  53.2173  34.4205 0001621  41.7563  13.6491 15.09417644  7337,6916.115,95.401,539.101,536.859,0.0
53392.0,STARLINK-4535,PAYLOAD,2022-09-23 22:00:00,15.08843495,0.0001526,53.2171,32.9229,48.8561,18.5697,-0.00074022,-0.0001205,0.0,0 STARLINK-4535,1 53392U 22097E   22266.91667824 -.00012050  00000-0 -74022-3 0  9991,2 53392  53.2171  32.9229 0001526  48.8561  18.5697 15.08843495  1303,6917.87,95.437,540.79,538.679,0.0
53392.0,STARLINK-4535,PAYLOAD,2022-09-24 14:00:01,15.08888836,0.0001629,53.2192,29.9389,36.0432,54.6511,-0.0022243,-0.00035561,0.0,0 STARLINK-4535,1 53392U 22097E   22267.58335648 -.00035561  00000-0 -22243-2 0  9990,2 53392  53.2192  29.9389 0001629  36.0432  54.6511 15.08888836  1303,6917.731,95.434,540.7230000000002,538.469,0.0
53392.0,STARLINK-4535,PAYLOAD,2022-09-24 22:00:00,15.08907562,0.0001901,53.2187,28.4424,40.4942,61.784,-0.014525,-0.00224746,0.0,0 STARLINK-4535,1 53392U 22097E   22267.91667824 -.00224746  00000-0 -14525-1 0  9999,2 53392  53.2187  28.4424 0001901  40.4942  61.7840 15.08907562  1301,6917.674,95.433,540.854,538.224,0.0
53392.0,STARLINK-4535,PAYLOAD,2022-09-25 06:00:00,15.08684176,0.0001821,53.2189,26.9448,52.3203,61.5524,0.0064226,0.00102985,0.0,0 STARLINK-4535,1 53392U 22097E   22268.25001157  .00102985  00000-0  64226-2 0  9990,2 53392  53.2189  26.9448 0001821  52.3203  61.5524 15.08684176  7581,6918.357,95.447,541.482,538.962,0.0
53392.0,STARLINK-4535,PAYLOAD,2022-09-25 14:00:01,15.08758044,0.0001848,53.2189,25.4498,44.813,80.5068,0.00811,0.00130896,0.0,0 STARLINK-4535,1 53392U 22097E   22268.58334491  .00130896  00000-0  81100-2 0  9998,2 53392  53.2189  25.4498 0001848  44.8130  80.5068 15.08758044  1308,6918.130999999999,95.443,541.274,538.717,0.0
53392.0,STARLINK-4535,PAYLOAD,2022-09-25 22:00:01,15.08844593,0.000183,53.2186,23.9537,41.2135,95.8572,-0.00049439,-8.149e-05,0.0,0 STARLINK-4535,1 53392U 22097E   22268.91668981 -.00008149  00000-0 -49439-3 0  9996,2 53392  53.2186  23.9537 0001830  41.2135  95.8572 15.08844593  7680,6917.866,95.437,540.997,538.465,0.0
53392.0,STARLINK-4535,PAYLOAD,2022-09-26 14:00:01,15.08832299,0.0001893,53.2187,20.9617,45.612,114.5969,-0.0009718,-0.00015718,0.0,0 STARLINK-4535,1 53392U 22097E   22269.58334491 -.00015718  00000-0 -97180-3 0  9992,2 53392  53.2187  20.9617 0001893  45.6120 114.5969 15.08832299  1300,6917.904,95.438,541.078,538.4590000000002,0.0
53392.0,STARLINK-4535,PAYLOAD,2022-09-26 22:00:00,15.08871882,0.0001929,53.2177,19.4611,42.2297,129.5626,-0.0065153999999999,-0.00102599,0.0,0 STARLINK-4535,1 53392U 22097E   22269.91667824 -.00102599  00000-0 -65154-2 0  9997,2 53392  53.2177  19.4611 0001929  42.2297 129.5626 15.08871882  1301,6917.783,95.436,540.982,538.313,0.0
53392.0,STARLINK-4535,PAYLOAD,2022-09-27 06:00:00,15.08799108,0.0001695,53.2185,17.9677,48.81800000000001,134.5511,0.0024521,0.00038909,0.0,0 STARLINK-4535,1 53392U 22097E   22270.25001157  .00038909  00000-0  24521-2 0  9991,2 53392  53.2185  17.9677 0001695  48.8180 134.5511 15.08799108  7886,6918.005,95.44,541.043,538.698,0.0
53392.0,STARLINK-4535,PAYLOAD,2022-09-27 14:00:01,15.08824017,0.0001889,53.2184,16.4733,44.0796,150.8587,0.00015755,2.219e-05,0.0,0 STARLINK-4535,1 53392U 22097E   22270.58334491  .00002219  00000-0  15755-3 0  9992,2 53392  53.2184  16.4733 0001889  44.0796 150.8587 15.08824017  1301,6917.929,95.439,541.101,538.487,0.0
